K-HERO                  
1 66660U 25274L   25344.25895184  .00004792  00000+0  46639-3 0  9996
2 66660  97.7388 271.5190 0012850 290.1663  69.8174 14.92937795  2032
SNUGLITE-III            
1 66661U 25274M   25344.25758197  .00003420  00000+0  33331-3 0  9991
2 66661  97.7388 271.5204 0013519 291.3275  68.6501 14.93076853  2035
2025-274N               
1 66662U 25274N   25344.25703920  .00003726  00000+0  36205-3 0  9998
2 66662  97.7386 271.5211 0013970 291.0451  68.9274 14.93126620  2034
KSLV-II R/B             
1 66663U 25274P   25343.35005284  .00003867  00000+0  33078-3 0  9998
2 66663  97.7404 270.7232 0050162 331.3188  28.5276 14.97241242  1900
SOYUZ-MS 28             
1 66664U 25275A   25344.15480881  .00014837  00000+0  27248-3 0  9990
2 66664  51.6306 155.2782 0003395 228.7876 131.2820 15.49465664  1289
KOMPSAT-7               
1 66820U 25279A   25344.27234443  .00003973  00000+0  33773-3 0  9991
2 66820  97.6405 290.1880 0009445 229.0504 130.9902 14.98382112  1281
ZQ-3 R/B                
1 66877U 25282A   25343.58584440  .01312735  73328-5  27722-3 0  9991
2 66877  56.9538  69.6744 0814789 214.5064 140.0407 14.50884242   933
1998-067XS              
1 66906U 98067XS  25344.02220671  .00036365  00000+0  63424-3 0  9999
2 66906  51.6303 155.8936 0003912 190.7132 169.3774 15.50350034  1196
1998-067XT              
1 66907U 98067XT  25343.50529068  .00076342  00000+0  12921-2 0  9998
2 66907  51.6307 158.4423 0004803 208.5081 151.5646 15.50864429  1113
1998-067XU              
1 66908U 98067XU  25343.95612625  .00081745  00000+0  13761-2 0  9996
2 66908  51.6304 156.2020 0004997 209.1255 150.9456 15.50986187  1189
SILVERSAT               
1 66909U 98067XV  25343.82707982  .00091886  00000+0  15400-2 0  9993
2 66909  51.6304 156.8402 0004876 210.6196 149.4510 15.51056405  1161
1998-067XW              
1 66910U 98067XW  25343.76145937  .00077029  00000+0  12863-2 0  9997
2 66910  51.6303 157.1524 0005724 193.6821 166.4014 15.51233501  1150
