CCSDS_OMM_VERS = 2.0
CREATION_DATE  = 
ORIGINATOR     = 

OBJECT_NAME    = K-HERO
OBJECT_ID      = 2025-274L
CENTER_NAME    = EARTH
REF_FRAME      = TEME
TIME_SYSTEM    = UTC
MEAN_ELEMENT_THEORY = SGP/SGP4

EPOCH          = 2025-12-10T06:12:53.438976
MEAN_MOTION    = 14.92937795
ECCENTRICITY   = .00128503
INCLINATION    = 97.7388
RA_OF_ASC_NODE = 271.5190
ARG_OF_PERICENTER = 290.1663
MEAN_ANOMALY   = 69.8174

EPHEMERIS_TYPE = 0
CLASSIFICATION_TYPE = U
NORAD_CAT_ID   = 66660
ELEMENT_SET_NO = 999
REV_AT_EPOCH   = 203
BSTAR          = .46638955E-3
MEAN_MOTION_DOT = .4792E-4
MEAN_MOTION_DDOT = 0

CCSDS_OMM_VERS = 2.0
CREATION_DATE  = 
ORIGINATOR     = 

OBJECT_NAME    = SNUGLITE-III
OBJECT_ID      = 2025-274M
CENTER_NAME    = EARTH
REF_FRAME      = TEME
TIME_SYSTEM    = UTC
MEAN_ELEMENT_THEORY = SGP/SGP4

EPOCH          = 2025-12-10T06:10:55.082208
MEAN_MOTION    = 14.93076853
ECCENTRICITY   = .00135195
INCLINATION    = 97.7388
RA_OF_ASC_NODE = 271.5204
ARG_OF_PERICENTER = 291.3275
MEAN_ANOMALY   = 68.6501

EPHEMERIS_TYPE = 0
CLASSIFICATION_TYPE = U
NORAD_CAT_ID   = 66661
ELEMENT_SET_NO = 999
REV_AT_EPOCH   = 203
BSTAR          = .33330735E-3
MEAN_MOTION_DOT = .342E-4
MEAN_MOTION_DDOT = 0

CCSDS_OMM_VERS = 2.0
CREATION_DATE  = 
ORIGINATOR     = 

OBJECT_NAME    = 2025-274N
OBJECT_ID      = 2025-274N
CENTER_NAME    = EARTH
REF_FRAME      = TEME
TIME_SYSTEM    = UTC
MEAN_ELEMENT_THEORY = SGP/SGP4

EPOCH          = 2025-12-10T06:10:08.186880
MEAN_MOTION    = 14.93126620
ECCENTRICITY   = .00139705
INCLINATION    = 97.7386
RA_OF_ASC_NODE = 271.5211
ARG_OF_PERICENTER = 291.0451
MEAN_ANOMALY   = 68.9274

EPHEMERIS_TYPE = 0
CLASSIFICATION_TYPE = U
NORAD_CAT_ID   = 66662
ELEMENT_SET_NO = 999
REV_AT_EPOCH   = 203
BSTAR          = .36205493E-3
MEAN_MOTION_DOT = .3726E-4
MEAN_MOTION_DDOT = 0

CCSDS_OMM_VERS = 2.0
CREATION_DATE  = 
ORIGINATOR     = 

OBJECT_NAME    = KSLV-II R/B
OBJECT_ID      = 2025-274P
CENTER_NAME    = EARTH
REF_FRAME      = TEME
TIME_SYSTEM    = UTC
MEAN_ELEMENT_THEORY = SGP/SGP4

EPOCH          = 2025-12-09T08:24:04.565376
MEAN_MOTION    = 14.97241242
ECCENTRICITY   = .0050162
INCLINATION    = 97.7404
RA_OF_ASC_NODE = 270.7232
ARG_OF_PERICENTER = 331.3188
MEAN_ANOMALY   = 28.5276

EPHEMERIS_TYPE = 0
CLASSIFICATION_TYPE = U
NORAD_CAT_ID   = 66663
ELEMENT_SET_NO = 999
REV_AT_EPOCH   = 190
BSTAR          = .33078E-3
MEAN_MOTION_DOT = .3867E-4
MEAN_MOTION_DDOT = 0

CCSDS_OMM_VERS = 2.0
CREATION_DATE  = 
ORIGINATOR     = 

OBJECT_NAME    = SOYUZ-MS 28
OBJECT_ID      = 2025-275A
CENTER_NAME    = EARTH
REF_FRAME      = TEME
TIME_SYSTEM    = UTC
MEAN_ELEMENT_THEORY = SGP/SGP4

EPOCH          = 2025-12-10T03:42:55.481184
MEAN_MOTION    = 15.49465664
ECCENTRICITY   = .0003395
INCLINATION    = 51.6306
RA_OF_ASC_NODE = 155.2782
ARG_OF_PERICENTER = 228.7876
MEAN_ANOMALY   = 131.2820

EPHEMERIS_TYPE = 0
CLASSIFICATION_TYPE = U
NORAD_CAT_ID   = 66664
ELEMENT_SET_NO = 999
REV_AT_EPOCH   = 128
BSTAR          = .27248017E-3
MEAN_MOTION_DOT = .14837E-3
MEAN_MOTION_DDOT = 0

CCSDS_OMM_VERS = 2.0
CREATION_DATE  = 
ORIGINATOR     = 

OBJECT_NAME    = KOMPSAT-7
OBJECT_ID      = 2025-279A
CENTER_NAME    = EARTH
REF_FRAME      = TEME
TIME_SYSTEM    = UTC
MEAN_ELEMENT_THEORY = SGP/SGP4

EPOCH          = 2025-12-10T06:32:10.558752
MEAN_MOTION    = 14.98382112
ECCENTRICITY   = .00094458
INCLINATION    = 97.6405
RA_OF_ASC_NODE = 290.1880
ARG_OF_PERICENTER = 229.0504
MEAN_ANOMALY   = 130.9902

EPHEMERIS_TYPE = 0
CLASSIFICATION_TYPE = U
NORAD_CAT_ID   = 66820
ELEMENT_SET_NO = 999
REV_AT_EPOCH   = 128
BSTAR          = .33772709E-3
MEAN_MOTION_DOT = .3973E-4
MEAN_MOTION_DDOT = 0

CCSDS_OMM_VERS = 2.0
CREATION_DATE  = 
ORIGINATOR     = 

OBJECT_NAME    = ZQ-3 R/B
OBJECT_ID      = 2025-282A
CENTER_NAME    = EARTH
REF_FRAME      = TEME
TIME_SYSTEM    = UTC
MEAN_ELEMENT_THEORY = SGP/SGP4

EPOCH          = 2025-12-09T14:03:36.956160
MEAN_MOTION    = 14.50884242
ECCENTRICITY   = .0814789
INCLINATION    = 56.9538
RA_OF_ASC_NODE = 69.6744
ARG_OF_PERICENTER = 214.5064
MEAN_ANOMALY   = 140.0407

EPHEMERIS_TYPE = 0
CLASSIFICATION_TYPE = U
NORAD_CAT_ID   = 66877
ELEMENT_SET_NO = 999
REV_AT_EPOCH   = 93
BSTAR          = .27722E-3
MEAN_MOTION_DOT = .1312735E-1
MEAN_MOTION_DDOT = .73328E-5

CCSDS_OMM_VERS = 2.0
CREATION_DATE  = 
ORIGINATOR     = 

OBJECT_NAME    = 1998-067XS
OBJECT_ID      = 1998-067XS
CENTER_NAME    = EARTH
REF_FRAME      = TEME
TIME_SYSTEM    = UTC
MEAN_ELEMENT_THEORY = SGP/SGP4

EPOCH          = 2025-12-10T00:31:58.659744
MEAN_MOTION    = 15.50350034
ECCENTRICITY   = .0003912
INCLINATION    = 51.6303
RA_OF_ASC_NODE = 155.8936
ARG_OF_PERICENTER = 190.7132
MEAN_ANOMALY   = 169.3774

EPHEMERIS_TYPE = 0
CLASSIFICATION_TYPE = U
NORAD_CAT_ID   = 66906
ELEMENT_SET_NO = 999
REV_AT_EPOCH   = 119
BSTAR          = .63423893E-3
MEAN_MOTION_DOT = .36365E-3
MEAN_MOTION_DDOT = 0

CCSDS_OMM_VERS = 2.0
CREATION_DATE  = 
ORIGINATOR     = 

OBJECT_NAME    = 1998-067XT
OBJECT_ID      = 1998-067XT
CENTER_NAME    = EARTH
REF_FRAME      = TEME
TIME_SYSTEM    = UTC
MEAN_ELEMENT_THEORY = SGP/SGP4

EPOCH          = 2025-12-09T12:07:37.114752
MEAN_MOTION    = 15.50864429
ECCENTRICITY   = .00048036
INCLINATION    = 51.6307
RA_OF_ASC_NODE = 158.4423
ARG_OF_PERICENTER = 208.5081
MEAN_ANOMALY   = 151.5646

EPHEMERIS_TYPE = 0
CLASSIFICATION_TYPE = U
NORAD_CAT_ID   = 66907
ELEMENT_SET_NO = 999
REV_AT_EPOCH   = 111
BSTAR          = .12921241E-2
MEAN_MOTION_DOT = .76342E-3
MEAN_MOTION_DDOT = 0

CCSDS_OMM_VERS = 2.0
CREATION_DATE  = 
ORIGINATOR     = 

OBJECT_NAME    = 1998-067XU
OBJECT_ID      = 1998-067XU
CENTER_NAME    = EARTH
REF_FRAME      = TEME
TIME_SYSTEM    = UTC
MEAN_ELEMENT_THEORY = SGP/SGP4

EPOCH          = 2025-12-09T22:56:49.308000
MEAN_MOTION    = 15.50986187
ECCENTRICITY   = .00049973
INCLINATION    = 51.6304
RA_OF_ASC_NODE = 156.2020
ARG_OF_PERICENTER = 209.1255
MEAN_ANOMALY   = 150.9456

EPHEMERIS_TYPE = 0
CLASSIFICATION_TYPE = U
NORAD_CAT_ID   = 66908
ELEMENT_SET_NO = 999
REV_AT_EPOCH   = 118
BSTAR          = .13760637E-2
MEAN_MOTION_DOT = .81745E-3
MEAN_MOTION_DDOT = 0

CCSDS_OMM_VERS = 2.0
CREATION_DATE  = 
ORIGINATOR     = 

OBJECT_NAME    = SILVERSAT
OBJECT_ID      = 1998-067XV
CENTER_NAME    = EARTH
REF_FRAME      = TEME
TIME_SYSTEM    = UTC
MEAN_ELEMENT_THEORY = SGP/SGP4

EPOCH          = 2025-12-09T19:50:59.696448
MEAN_MOTION    = 15.51056405
ECCENTRICITY   = .00048767
INCLINATION    = 51.6304
RA_OF_ASC_NODE = 156.8402
ARG_OF_PERICENTER = 210.6196
MEAN_ANOMALY   = 149.4510

EPHEMERIS_TYPE = 0
CLASSIFICATION_TYPE = U
NORAD_CAT_ID   = 66909
ELEMENT_SET_NO = 999
REV_AT_EPOCH   = 116
BSTAR          = .1540003E-2
MEAN_MOTION_DOT = .91886E-3
MEAN_MOTION_DDOT = 0

CCSDS_OMM_VERS = 2.0
CREATION_DATE  = 
ORIGINATOR     = 

OBJECT_NAME    = 1998-067XW
OBJECT_ID      = 1998-067XW
CENTER_NAME    = EARTH
REF_FRAME      = TEME
TIME_SYSTEM    = UTC
MEAN_ELEMENT_THEORY = SGP/SGP4

EPOCH          = 2025-12-09T18:16:30.089568
MEAN_MOTION    = 15.51233501
ECCENTRICITY   = .00057247
INCLINATION    = 51.6303
RA_OF_ASC_NODE = 157.1524
ARG_OF_PERICENTER = 193.6821
MEAN_ANOMALY   = 166.4014

EPHEMERIS_TYPE = 0
CLASSIFICATION_TYPE = U
NORAD_CAT_ID   = 66910
ELEMENT_SET_NO = 999
REV_AT_EPOCH   = 115
BSTAR          = .1286346E-2
MEAN_MOTION_DOT = .77029E-3
MEAN_MOTION_DDOT = 0

